     2.01           GLONASS NAV DATA                        RINEX VERSION / TYPE
CCRINEXG V1.4 UX    CDDIS               05-JUL-22 23:33     PGM / RUN BY / DATE 
IGS BROADCAST EPHEMERIS FILE                                COMMENT             
teqc  2020Oct7      UNAVCO Archive Ops  20220705  2:30:     COMMENT             
  2022     7     4    0.931322574616D-09                    CORR TO SYSTEM TIME 
    18                                                      LEAP SECONDS        
                                                            END OF HEADER       
17 22  7  4 11 45  0.0 0.540541484952D-03 0.272848410532D-11 0.423000000000D+05
    0.105869252930D+05 0.373334884644D+00 0.931322574616D-09 0.000000000000D+00
   -0.237664062500D+03 0.315898895264D+01 0.186264514923D-08 0.400000000000D+01
    0.232054663086D+05-0.141783714294D+00-0.931322574616D-09 0.000000000000D+00
18 22  7  4 11 45  0.0 0.122426077723D-03 0.909494701773D-12 0.423000000000D+05
    0.618451123047D+04 0.109489440918D+00 0.000000000000D+00 0.000000000000D+00
   -0.171744267578D+05 0.244384574890D+01 0.000000000000D+00-0.300000000000D+01
    0.178009794922D+05 0.232486534119D+01-0.186264514923D-08 0.000000000000D+00
19 22  7  4 11 45  0.0-0.195046886802D-03-0.909494701773D-12 0.420000000000D+05
   -0.174992675781D+03-0.205750465393D+00-0.186264514923D-08 0.000000000000D+00
   -0.251662241211D+05 0.592333793640D+00-0.931322574616D-09 0.300000000000D+01
    0.417523339844D+04 0.355430603027D+01-0.931322574616D-09 0.000000000000D+00
20 22  7  4 11 45  0.0-0.739321112633D-04-0.909494701773D-12 0.425100000000D+05
   -0.832389257812D+04-0.357175827026D+00-0.186264514923D-08 0.000000000000D+00
   -0.185178715820D+05-0.209504127502D+01-0.186264514923D-08 0.200000000000D+01
   -0.154174902344D+05 0.271243858337D+01-0.000000000000D+00 0.000000000000D+00
21 22  7  4 11 45  0.0-0.314666889608D-03-0.272848410532D-11 0.414000000000D+05
   -0.103347573242D+05-0.344437599182D+00-0.931322574616D-09 0.000000000000D+00
    0.180293701172D+04-0.316825008392D+01-0.186264514923D-08 0.400000000000D+01
   -0.232581977539D+05-0.952148437500D-01 0.931322574616D-09 0.000000000000D+00
23 22  7  4 11 45  0.0-0.465372577310D-04-0.909494701773D-12 0.414000000000D+05
    0.323777539062D+04 0.267176628113D+00 0.186264514923D-08 0.000000000000D+00
    0.252584033203D+05 0.176403999329D+00 0.186264514923D-08 0.300000000000D+01
    0.146171728516D+04-0.360260963440D+01 0.931322574616D-09 0.000000000000D+00
24 22  7  4 11 45  0.0 0.101866200566D-03 0.181898940355D-11 0.414000000000D+05
    0.930846630859D+04 0.359148979187D+00 0.279396772385D-08 0.000000000000D+00
    0.177320151367D+05 0.213676357269D+01 0.279396772385D-08 0.200000000000D+01
    0.157965449219D+05-0.261309242248D+01-0.000000000000D+00 0.000000000000D+00
 1 22  7  4 12 15  0.0 0.109309330583D-04 0.000000000000D+00 0.454800000000D+05
    0.103561816406D+04-0.301117706299D+01 0.186264514923D-08 0.000000000000D+00
    0.115156494141D+05-0.786461830139D+00 0.931322574616D-09 0.100000000000D+01
    0.227387788086D+05 0.536931991577D+00-0.186264514923D-08 0.000000000000D+00
 2 22  7  4 12 15  0.0 0.523155555129D-03 0.909494701773D-12 0.432000000000D+05
    0.193918876953D+05-0.153497409821D+01 0.186264514923D-08 0.000000000000D+00
    0.114698442383D+05-0.604858398438D+00 0.279396772385D-08-0.400000000000D+01
    0.120645527344D+05 0.304775905609D+01 0.000000000000D+00 0.000000000000D+00
 3 22  7  4 12 15  0.0 0.596074387431D-04 0.909494701773D-12 0.432000000000D+05
    0.246260737305D+05 0.725834846497D+00 0.931322574616D-09 0.000000000000D+00
    0.435589892578D+04 0.287160873413D-01 0.186264514923D-08 0.500000000000D+01
   -0.511925585938D+04 0.347978401184D+01 0.186264514923D-08 0.000000000000D+00
 4 22  7  4 12 15  0.0 0.149430707097D-03 0.909494701773D-12 0.432000000000D+05
    0.160035937500D+05 0.257104587555D+01-0.931322574616D-09 0.000000000000D+00
   -0.479122656250D+04 0.624008178711D+00 0.000000000000D+00 0.600000000000D+01
   -0.192501274414D+05 0.197826480866D+01 0.186264514923D-08 0.000000000000D+00
 5 22  7  4 12 15  0.0 0.956784933805D-04 0.000000000000D+00 0.432000000000D+05
   -0.130532958984D+04 0.299083328247D+01-0.186264514923D-08 0.000000000000D+00
   -0.114214521484D+05 0.892286300659D+00-0.931322574616D-09 0.100000000000D+01
   -0.227554365234D+05-0.620967864990D+00 0.931322574616D-09 0.000000000000D+00
 6 22  7  4 12 15  0.0-0.573163852096D-04-0.181898940355D-11 0.432000000000D+05
   -0.203816083984D+05 0.143769741058D+01-0.186264514923D-08 0.000000000000D+00
   -0.106021787109D+05 0.495332717895D+00-0.186264514923D-08-0.400000000000D+01
   -0.110717519531D+05-0.312467575073D+01-0.000000000000D+00 0.000000000000D+00
 7 22  7  4 12 15  0.0 0.373581424355D-04 0.000000000000D+00 0.441000000000D+05
   -0.244671250000D+05-0.830597877502D+00-0.931322574616D-09 0.000000000000D+00
   -0.390475683594D+04-0.661096572876D-01-0.186264514923D-08 0.500000000000D+01
    0.600764648438D+04-0.345285511017D+01-0.186264514923D-08 0.000000000000D+00
 8 22  7  4 12 15  0.0-0.660037621856D-04 0.000000000000D+00 0.441000000000D+05
   -0.158467958984D+05-0.256791591644D+01 0.931322574616D-09 0.000000000000D+00
    0.508080615234D+04-0.623868942261D+00-0.931322574616D-09 0.600000000000D+01
    0.193811088867D+05-0.194404411316D+01-0.186264514923D-08 0.000000000000D+00
 9 22  7  4 12 15  0.0 0.639772042632D-04 0.181898940355D-11 0.441000000000D+05
   -0.738637890625D+04 0.218129062653D+01 0.000000000000D+00 0.000000000000D+00
   -0.861953417969D+04-0.223412609100D+01 0.000000000000D+00-0.200000000000D+01
    0.228618847656D+05-0.144937515259D+00-0.279396772385D-08 0.000000000000D+00
10 22  7  4 12 15  0.0-0.838935375214D-04 0.000000000000D+00 0.441000000000D+05
   -0.172199204102D+05 0.180652999878D+01 0.931322574616D-09 0.000000000000D+00
    0.508893261719D+04-0.169981765747D+01-0.931322574616D-09-0.700000000000D+01
    0.180826513672D+05 0.220465373993D+01-0.186264514923D-08 0.000000000000D+00
11 22  7  4 12 15  0.0 0.343015417457D-04-0.909494701773D-12 0.432300000000D+05
   -0.186211958008D+05 0.339615821838D+00 0.931322574616D-09 0.000000000000D+00
    0.172964565430D+05-0.103910446167D+00-0.931322574616D-09 0.000000000000D+00
    0.229833935547D+04 0.355362415314D+01 0.000000000000D+00 0.000000000000D+00
12 22  7  4 12 15  0.0 0.191498547792D-04-0.000000000000D+00 0.432000000000D+05
   -0.825505712891D+04-0.142100429535D+01 0.000000000000D+00 0.000000000000D+00
    0.185609580078D+05 0.156860160828D+01-0.000000000000D+00-0.100000000000D+01
   -0.153886308594D+05 0.265008163452D+01 0.931322574616D-09 0.000000000000D+00
13 22  7  4 12 15  0.0-0.242749229074D-04-0.000000000000D+00 0.432000000000D+05
    0.597108691406D+04-0.218714237213D+01-0.000000000000D+00 0.000000000000D+00
    0.957605273438D+04 0.223943233490D+01 0.000000000000D+00-0.200000000000D+01
   -0.228851655273D+05 0.366198539734D+00 0.279396772385D-08 0.000000000000D+00
14 22  7  4 12 15  0.0 0.249855220318D-04-0.000000000000D+00 0.432000000000D+05
    0.179313564453D+05-0.171204090118D+01-0.931322574616D-09 0.000000000000D+00
   -0.627552246094D+04 0.158371257782D+01 0.000000000000D+00-0.700000000000D+01
   -0.169938886719D+05-0.239078998566D+01 0.186264514923D-08 0.000000000000D+00
15 22  7  4 12 15  0.0 0.948822125792D-04 0.000000000000D+00 0.432000000000D+05
    0.185510136719D+05-0.233798027039D+00-0.931322574616D-09 0.000000000000D+00
   -0.174525825195D+05 0.218582153320D-01 0.000000000000D+00 0.000000000000D+00
   -0.130187744141D+04-0.355869197846D+01 0.000000000000D+00 0.000000000000D+00
17 22  7  4 12 15  0.0 0.540547072887D-03 0.272848410532D-11 0.441000000000D+05
    0.116625112305D+05 0.804991722107D+00 0.186264514923D-08 0.000000000000D+00
    0.527487402344D+04 0.291609764099D+01 0.186264514923D-08 0.400000000000D+01
    0.220563710938D+05-0.112682056427D+01-0.931322574616D-09 0.000000000000D+00
18 22  7  4 12 15  0.0 0.122428871691D-03 0.909494701773D-12 0.441000000000D+05
    0.680527490234D+04 0.594753265381D+00 0.000000000000D+00 0.000000000000D+00
   -0.123636767578D+05 0.285296726227D+01 0.000000000000D+00-0.300000000000D+01
    0.212427822266D+05 0.147463321686D+01-0.186264514923D-08 0.000000000000D+00
19 22  7  4 12 15  0.0-0.195049680769D-03-0.909494701773D-12 0.441000000000D+05
   -0.328369140625D+03 0.731735229492D-01-0.931322574616D-09 0.000000000000D+00
   -0.233214726562D+05 0.143481445312D+01 0.000000000000D+00 0.300000000000D+01
    0.103289282227D+05 0.323872566223D+01-0.931322574616D-09 0.000000000000D+00
20 22  7  4 12 15  0.0-0.739339739084D-04-0.909494701773D-12 0.451800000000D+05
   -0.914144677734D+04-0.511469841003D+00-0.279396772385D-08 0.000000000000D+00
   -0.215907402344D+05-0.129510116577D+01-0.186264514923D-08 0.200000000000D+01
   -0.100011357422D+05 0.326661586762D+01 0.000000000000D+00 0.000000000000D+00
21 22  7  4 12 15  0.0-0.314672477543D-03-0.272848410532D-11 0.432000000000D+05
   -0.113737817383D+05-0.796090126038D+00-0.186264514923D-08 0.000000000000D+00
   -0.377885595703D+04-0.298259639740D+01-0.186264514923D-08 0.400000000000D+01
   -0.225292807617D+05 0.899793624878D+00 0.931322574616D-09 0.000000000000D+00
23 22  7  4 12 15  0.0-0.465400516987D-04-0.909494701773D-12 0.432000000000D+05
    0.358605712891D+04 0.784835815430D-01 0.186264514923D-08 0.000000000000D+00
    0.247585219727D+05-0.720651626587D+00 0.931322574616D-09 0.300000000000D+01
   -0.499570654297D+04-0.352571773529D+01 0.186264514923D-08 0.000000000000D+00
24 22  7  4 12 15  0.0 0.101876445115D-03 0.181898940355D-11 0.432000000000D+05
    0.101123994141D+05 0.495686531067D+00 0.279396772385D-08 0.000000000000D+00
    0.209052490234D+05 0.136515140533D+01 0.279396772385D-08 0.200000000000D+01
    0.105429174805D+05-0.318640136719D+01 0.000000000000D+00 0.000000000000D+00
